start=new Date('2022-04-03T00:00:00.000Z').valueOf();
sats=[{"MEAN_MOTION":"15.10609168","EPHEMERIS_TYPE":"0","SEMIMAJOR_AXIS":"6912.478","DECAY_DATE":null,"ECCENTRICITY":"0.00020350","TLE_LINE1":"1 45561U 20025AG  22092.89269626  .00027653  00000-0  16659-2 0  9995","OBJECT_ID":"2020-025AG","OBJECT_NAME":"STARLINK-1348","PERIAPSIS":"532.936","PERIOD":"95.326","TLE_LINE2":"2 45561  53.0585 328.9571 0002035 107.6084 252.5130 15.10609168110041","RCS_SIZE":"LARGE","MEAN_ELEMENT_THEORY":"SGP4","BSTAR":"0.00166590000000","REV_AT_EPOCH":"11004","TIME_SYSTEM":"UTC","MEAN_MOTION_DDOT":"0.0000000000000","EPOCH":"2022-04-02T21:25:28.956864","MEAN_MOTION_DOT":"0.00027653","NORAD_CAT_ID":"45561","LAUNCH_DATE":"2020-04-22","ELEMENT_SET_NO":"999","INCLINATION":"53.0585","COUNTRY_CODE":"US","ARG_OF_PERICENTER":"107.6084","OBJECT_TYPE":"PAYLOAD","MEAN_ANOMALY":"252.5130","REF_FRAME":"TEME","SITE":"AFETR","CLASSIFICATION_TYPE":"U","RA_OF_ASC_NODE":"328.9571","APOAPSIS":"535.750","CENTER_NAME":"EARTH","GP_ID":"200320526","FILE":"3385473"},{"INCLINATION":"53.0543","COUNTRY_CODE":"US","ELEMENT_SET_NO":"999","LAUNCH_DATE":"2020-04-22","NORAD_CAT_ID":"45562","MEAN_MOTION_DOT":"-0.00000934","EPOCH":"2022-04-02T20:29:39.054336","OBJECT_TYPE":"PAYLOAD","ARG_OF_PERICENTER":"66.6571","APOAPSIS":"548.355","RA_OF_ASC_NODE":"56.8162","CLASSIFICATION_TYPE":"U","SITE":"AFETR","REF_FRAME":"TEME","MEAN_ANOMALY":"293.4590","GP_ID":"200320776","FILE":"3385473","CENTER_NAME":"EARTH","ECCENTRICITY":"0.00016360","DECAY_DATE":null,"SEMIMAJOR_AXIS":"6925.357","EPHEMERIS_TYPE":"0","MEAN_MOTION":"15.06397168","PERIOD":"95.592","PERIAPSIS":"546.089","OBJECT_NAME":"STARLINK-1354","OBJECT_ID":"2020-025AH","TLE_LINE1":"1 45562U 20025AH  22092.85392424 -.00000934  00000-0 -43837-4 0  9990","REV_AT_EPOCH":"10880","BSTAR":"-0.00004383700000","RCS_SIZE":"LARGE","MEAN_ELEMENT_THEORY":"SGP4","TLE_LINE2":"2 45562  53.0543  56.8162 0001636  66.6571 293.4590 15.06397168108804","MEAN_MOTION_DDOT":"0.0000000000000","TIME_SYSTEM":"UTC"},{"MEAN_MOTION":"15.06386902","EPHEMERIS_TYPE":"0","SEMIMAJOR_AXIS":"6925.389","DECAY_DATE":null,"ECCENTRICITY":"0.00012960","TLE_LINE1":"1 45563U 20025AJ  22092.86867860  .00002798  00000-0  20672-3 0  9992","OBJECT_ID":"2020-025AJ","OBJECT_NAME":"STARLINK-1355","PERIAPSIS":"546.356","PERIOD":"95.593","TLE_LINE2":"2 45563  53.0565  56.7723 0001296  73.5674 286.5458 15.06386902108804","BSTAR":"0.00020672000000","RCS_SIZE":"LARGE","MEAN_ELEMENT_THEORY":"SGP4","REV_AT_EPOCH":"10880","TIME_SYSTEM":"UTC","MEAN_MOTION_DDOT":"0.0000000000000","EPOCH":"2022-04-02T20:50:53.831040","MEAN_MOTION_DOT":"0.00002798","NORAD_CAT_ID":"45563","LAUNCH_DATE":"2020-04-22","ELEMENT_SET_NO":"999","INCLINATION":"53.0565","COUNTRY_CODE":"US","ARG_OF_PERICENTER":"73.5674","OBJECT_TYPE":"PAYLOAD","REF_FRAME":"TEME","MEAN_ANOMALY":"286.5458","SITE":"AFETR","CLASSIFICATION_TYPE":"U","RA_OF_ASC_NODE":"56.7723","APOAPSIS":"548.151","CENTER_NAME":"EARTH","FILE":"3385473","GP_ID":"200321027"},{"CENTER_NAME":"EARTH","GP_ID":"200321778","FILE":"3385473","RA_OF_ASC_NODE":"56.7680","CLASSIFICATION_TYPE":"U","APOAPSIS":"548.218","REF_FRAME":"TEME","MEAN_ANOMALY":"301.0208","SITE":"AFETR","ARG_OF_PERICENTER":"59.0920","OBJECT_TYPE":"PAYLOAD","LAUNCH_DATE":"2020-04-22","INCLINATION":"53.0552","COUNTRY_CODE":"US","ELEMENT_SET_NO":"999","MEAN_MOTION_DOT":"-0.00001130","EPOCH":"2022-04-02T20:45:34.815456","NORAD_CAT_ID":"45564","MEAN_MOTION_DDOT":"0.0000000000000","TIME_SYSTEM":"UTC","BSTAR":"-0.00005702000000","RCS_SIZE":"LARGE","MEAN_ELEMENT_THEORY":"SGP4","TLE_LINE2":"2 45564  53.0552  56.7680 0001410  59.0920 301.0208 15.06390983108804","REV_AT_EPOCH":"10880","PERIOD":"95.593","PERIAPSIS":"546.265","OBJECT_NAME":"STARLINK-1356","TLE_LINE1":"1 45564U 20025AK  22092.86498629 -.00001130  00000-0 -57020-4 0  9995","OBJECT_ID":"2020-025AK","SEMIMAJOR_AXIS":"6925.376","ECCENTRICITY":"0.00014100","DECAY_DATE":null,"EPHEMERIS_TYPE":"0","MEAN_MOTION":"15.06390983"},{"MEAN_MOTION":"15.06395855","EPHEMERIS_TYPE":"0","ECCENTRICITY":"0.00015360","DECAY_DATE":null,"SEMIMAJOR_AXIS":"6925.361","OBJECT_ID":"2020-025AL","TLE_LINE1":"1 45565U 20025AL  22092.85761176 -.00002023  00000-0 -11694-3 0  9993","PERIOD":"95.592","PERIAPSIS":"546.163","OBJECT_NAME":"STARLINK-1357","REV_AT_EPOCH":"10880","RCS_SIZE":"LARGE","MEAN_ELEMENT_THEORY":"SGP4","BSTAR":"-0.00011694000000","TLE_LINE2":"2 45565  53.0544  56.8051 0001536  67.4917 292.6234 15.06395855108804","TIME_SYSTEM":"UTC","MEAN_MOTION_DDOT":"0.0000000000000","NORAD_CAT_ID":"45565","MEAN_MOTION_DOT":"-0.00002023","EPOCH":"2022-04-02T20:34:57.656064","INCLINATION":"53.0544","COUNTRY_CODE":"US","ELEMENT_SET_NO":"999","LAUNCH_DATE":"2020-04-22","OBJECT_TYPE":"PAYLOAD","ARG_OF_PERICENTER":"67.4917","SITE":"AFETR","REF_FRAME":"TEME","MEAN_ANOMALY":"292.6234","APOAPSIS":"548.290","RA_OF_ASC_NODE":"56.8051","CLASSIFICATION_TYPE":"U","GP_ID":"200320026","FILE":"3385473","CENTER_NAME":"EARTH"},{"TLE_LINE2":"2 45566  53.0554  57.9405 0001750  48.1778 311.9361 15.06396200108766","MEAN_ELEMENT_THEORY":"SGP4","RCS_SIZE":"LARGE","BSTAR":"0.00001104300000","REV_AT_EPOCH":"10876","MEAN_MOTION_DDOT":"0.0000000000000","TIME_SYSTEM":"UTC","SEMIMAJOR_AXIS":"6925.360","DECAY_DATE":null,"ECCENTRICITY":"0.00017500","EPHEMERIS_TYPE":"0","MEAN_MOTION":"15.06396200","OBJECT_NAME":"STARLINK-1358","PERIOD":"95.592","PERIAPSIS":"546.013","TLE_LINE1":"1 45566U 20025AM  22092.60696044 -.00000117  00000-0  11043-4 0  9998","OBJECT_ID":"2020-025AM","CLASSIFICATION_TYPE":"U","RA_OF_ASC_NODE":"57.9405","APOAPSIS":"548.437","REF_FRAME":"TEME","MEAN_ANOMALY":"311.9361","SITE":"AFETR","CENTER_NAME":"EARTH","FILE":"3385473","GP_ID":"200320276","LAUNCH_DATE":"2020-04-22","ELEMENT_SET_NO":"999","COUNTRY_CODE":"US","INCLINATION":"53.0554","EPOCH":"2022-04-02T14:34:01.382016","MEAN_MOTION_DOT":"-0.00000117","NORAD_CAT_ID":"45566","ARG_OF_PERICENTER":"48.1778","OBJECT_TYPE":"PAYLOAD"},{"CLASSIFICATION_TYPE":"U","RA_OF_ASC_NODE":"57.8731","APOAPSIS":"548.301","MEAN_ANOMALY":"289.1321","REF_FRAME":"TEME","SITE":"AFETR","CENTER_NAME":"EARTH","FILE":"3385473","GP_ID":"200321528","LAUNCH_DATE":"2020-04-22","ELEMENT_SET_NO":"999","COUNTRY_CODE":"US","INCLINATION":"53.0540","EPOCH":"2022-04-02T14:49:57.065376","MEAN_MOTION_DOT":"0.00001234","NORAD_CAT_ID":"45567","ARG_OF_PERICENTER":"70.9839","OBJECT_TYPE":"PAYLOAD","TLE_LINE2":"2 45567  53.0540  57.8731 0001583  70.9839 289.1321 15.06402772108773","BSTAR":"0.00010171000000","RCS_SIZE":"LARGE","MEAN_ELEMENT_THEORY":"SGP4","REV_AT_EPOCH":"10877","MEAN_MOTION_DDOT":"0.0000000000000","TIME_SYSTEM":"UTC","SEMIMAJOR_AXIS":"6925.340","DECAY_DATE":null,"ECCENTRICITY":"0.00015830","MEAN_MOTION":"15.06402772","EPHEMERIS_TYPE":"0","OBJECT_NAME":"STARLINK-1361","PERIOD":"95.592","PERIAPSIS":"546.109","TLE_LINE1":"1 45567U 20025AN  22092.61802159  .00001234  00000-0  10171-3 0  9996","OBJECT_ID":"2020-025AN"},{"LAUNCH_DATE":"2020-04-22","COUNTRY_CODE":"US","INCLINATION":"53.0549","ELEMENT_SET_NO":"999","MEAN_MOTION_DOT":"0.00001810","EPOCH":"2022-04-02T21:00:07.966944","NORAD_CAT_ID":"45568","ARG_OF_PERICENTER":"73.4955","OBJECT_TYPE":"PAYLOAD","RA_OF_ASC_NODE":"56.7316","CLASSIFICATION_TYPE":"U","APOAPSIS":"548.382","MEAN_ANOMALY":"286.6222","REF_FRAME":"TEME","SITE":"AFETR","CENTER_NAME":"EARTH","FILE":"3385473","GP_ID":"200321278","SEMIMAJOR_AXIS":"6925.329","ECCENTRICITY":"0.00017160","DECAY_DATE":null,"EPHEMERIS_TYPE":"0","MEAN_MOTION":"15.06406428","PERIOD":"95.592","PERIAPSIS":"546.005","OBJECT_NAME":"STARLINK-1363","TLE_LINE1":"1 45568U 20025AP  22092.87509221  .00001810  00000-0  14039-3 0  9996","OBJECT_ID":"2020-025AP","RCS_SIZE":"LARGE","MEAN_ELEMENT_THEORY":"SGP4","BSTAR":"0.00014039000000","TLE_LINE2":"2 45568  53.0549  56.7316 0001716  73.4955 286.6222 15.06406428108803","REV_AT_EPOCH":"10880","MEAN_MOTION_DDOT":"0.0000000000000","TIME_SYSTEM":"UTC"},{"REV_AT_EPOCH":"10876","TLE_LINE2":"2 45569  53.0555  57.8663 0001685  49.9021 310.2115 15.06399143108760","RCS_SIZE":"LARGE","MEAN_ELEMENT_THEORY":"SGP4","BSTAR":"0.00005023200000","TIME_SYSTEM":"UTC","MEAN_MOTION_DDOT":"0.0000000000000","MEAN_MOTION":"15.06399143","EPHEMERIS_TYPE":"0","DECAY_DATE":null,"ECCENTRICITY":"0.00016850","SEMIMAJOR_AXIS":"6925.351","OBJECT_ID":"2020-025AQ","TLE_LINE1":"1 45569U 20025AQ  22092.62171176  .00000467  00000-0  50232-4 0  9997","OBJECT_NAME":"STARLINK-1366","PERIOD":"95.592","PERIAPSIS":"546.049","SITE":"AFETR","REF_FRAME":"TEME","MEAN_ANOMALY":"310.2115","APOAPSIS":"548.383","CLASSIFICATION_TYPE":"U","RA_OF_ASC_NODE":"57.8663","GP_ID":"200320527","FILE":"3385473","CENTER_NAME":"EARTH","NORAD_CAT_ID":"45569","EPOCH":"2022-04-02T14:55:15.896064","MEAN_MOTION_DOT":"0.00000467","ELEMENT_SET_NO":"999","COUNTRY_CODE":"US","INCLINATION":"53.0555","LAUNCH_DATE":"2020-04-22","OBJECT_TYPE":"PAYLOAD","ARG_OF_PERICENTER":"49.9021"},{"DECAY_DATE":null,"ECCENTRICITY":"0.00013920","SEMIMAJOR_AXIS":"6925.377","MEAN_MOTION":"15.06390558","EPHEMERIS_TYPE":"0","OBJECT_NAME":"STARLINK-1376","PERIOD":"95.593","PERIAPSIS":"546.278","OBJECT_ID":"2020-025AR","TLE_LINE1":"1 45570U 20025AR  22092.61434375  .00000112  00000-0  26432-4 0  9993","REV_AT_EPOCH":"10876","TLE_LINE2":"2 45570  53.0553  57.8937 0001392  60.4808 299.6320 15.06390558108769","BSTAR":"0.00002643200000","RCS_SIZE":"LARGE","MEAN_ELEMENT_THEORY":"SGP4","MEAN_MOTION_DDOT":"0.0000000000000","TIME_SYSTEM":"UTC","ELEMENT_SET_NO":"999","INCLINATION":"53.0553","COUNTRY_CODE":"US","LAUNCH_DATE":"2020-04-22","NORAD_CAT_ID":"45570","EPOCH":"2022-04-02T14:44:39.300000","MEAN_MOTION_DOT":"0.00000112","OBJECT_TYPE":"PAYLOAD","ARG_OF_PERICENTER":"60.4808","APOAPSIS":"548.207","CLASSIFICATION_TYPE":"U","RA_OF_ASC_NODE":"57.8937","SITE":"AFETR","REF_FRAME":"TEME","MEAN_ANOMALY":"299.6320","GP_ID":"200320777","FILE":"3385473","CENTER_NAME":"EARTH"}];
